[{"OBJECT_NAME":"STARLINK-30909","OBJECT_ID":"2023-177N","EPOCH":"2026-03-09T22:00:01.999584","MEAN_MOTION":15.26743331,"ECCENTRICITY":0.00016035,"INCLINATION":43.0009,"RA_OF_ASC_NODE":348.9868,"ARG_OF_PERICENTER":261.3487,"MEAN_ANOMALY":186.1263,"EPHEMERIS_TYPE":0,"CLASSIFICATION_TYPE":"U","NORAD_CAT_ID":58363,"ELEMENT_SET_NO":999,"REV_AT_EPOCH":578,"BSTAR":-0.00037916414,"MEAN_MOTION_DOT":-0.00010417,"MEAN_MOTION_DDOT":0},{"OBJECT_NAME":"FLOCK 4G-7","OBJECT_ID":"2025-009R","EPOCH":"2026-03-09T19:11:56.638176","MEAN_MOTION":15.27141471,"ECCENTRICITY":0.00013963,"INCLINATION":97.3984,"RA_OF_ASC_NODE":150.827,"ARG_OF_PERICENTER":336.9783,"MEAN_ANOMALY":23.1393,"EPHEMERIS_TYPE":0,"CLASSIFICATION_TYPE":"U","NORAD_CAT_ID":62624,"ELEMENT_SET_NO":999,"REV_AT_EPOCH":6372,"BSTAR":0.0004316781,"MEAN_MOTION_DOT":0.00011422,"MEAN_MOTION_DDOT":0}]
